PROBA-1                 
1 26958U 01049B   15041.43479144  .00002739  00000-0  25065-3 0  9993
2 26958  97.4624  34.2339 0075044 325.6337  34.0047 14.93638729723403
BIRD 2                  
1 26959U 01049C   15041.15750913  .00010165  00000-0  38551-3 0  9995
2 26959  97.7845 296.2963 0012088 160.4382   1.9563 15.27012805735003
CUTE-1 (CO-55)          
1 27844U 03031E   15040.48270929  .00000348  00000-0  17822-3 0  9991
2 27844  98.6976  50.8300 0008722 313.1212 202.0735 14.21708983602291
CUBESAT XI-IV (CO-57)   
1 27848U 03031J   15040.46547384  .00000305  00000-0  15994-3 0  9996
2 27848  98.7072  50.6531 0008695 321.0785 164.8023 14.21368858602208
GENESIS 1               
1 29252U 06029A   15040.45881244  .00007614  00000-0  42645-3 0  9995
2 29252  64.5077 204.6302 0050587 285.3907 107.2413 15.13025117471700
FALCONSAT-3             
1 30776U 07006E   15040.49749760  .00014468  00000-0  63155-3 0  9998
2 30776  35.4280  79.8616 0003864 224.3378 278.6858 15.21354001436823
GENESIS 2               
1 31789U 07028A   15040.54858016  .00005530  00000-0  32593-3 0  9990
2 31789  64.5065 239.2680 0023493 328.8044  31.1680 15.12392464418847
APRIZESAT 4             
1 35684U 09041D   15040.33468131  .00001132  00000-0  16031-3 0  9990
2 35684  98.0681 326.6989 0047292 346.3934 127.5193 14.78333354298209
APRIZESAT 3             
1 35686U 09041F   15040.46247138  .00001929  00000-0  21723-3 0  9996
2 35686  98.1804 357.8788 0073318 285.2058 188.8461 14.86010009299609
PROBA-2                 
1 36037U 09059B   15040.51991256  .00000266  00000-0  75681-4 0  9995
2 36037  98.2782 235.2686 0014495 100.0975 312.9999 14.52778171279456
APRIZESAT 5             
1 37792U 11044E   15041.23326183  .00001093  00000-0  16900-3 0  9999
2 37792  98.2361 153.8060 0058223 264.1910 120.6925 14.74330941187406
APRIZESAT 6             
1 37793U 11044F   15041.09315079  .00000920  00000-0  15437-3 0  9998
2 37793  98.2147 146.8291 0046459 278.5643 205.8041 14.71515377187036
TET-1                   
1 38710U 12039D   15040.87655613  .00015095  00000-0  47142-3 0  9996
2 38710  97.4776 324.1131 0003890  74.9666 285.2007 15.33278052142113
STSAT-2C                
1 39068U 13003A   15040.59859905  .00052034  18535-6  85422-3 0  9999
2 39068  80.2498  87.3464 0616861 237.6282 116.3787 14.49957758105052
CUSAT 1                 
1 39266U 13055B   15040.49241511  .00032402  00000-0  10073-2 0  9991
2 39266  80.9963 175.2013 0729815 196.0586 161.6315 14.12851354 69898
STPSAT-3                
1 39380U 13064A   15040.38938327  .00015340  00000-0  58308-3 0  9990
2 39380  40.5089 165.2304 0001031  12.0044 348.0792 15.26414139 68089
APRIZESAT 7             
1 39416U 13066A   15040.77333662  .00001046  00000-0  13345-3 0  9996
2 39416  97.7503 111.1077 0042197 186.3862 173.6820 14.82950255 65976
APRIZESAT 8             
1 39425U 13066K   15040.26225689  .00000917  00000-0  12434-3 0  9993
2 39425  97.7476 108.7553 0052855 190.1965 169.8180 14.80302036 65809
BUGSAT-1 (TITA)         
1 40014U 14033E   15041.38815569 -.00006690  00000-0 -63637-3 0  9997
2 40014  97.9747 304.0841 0032366 287.5655  72.0670 14.92730050 35126
SAUDISAT 4              
1 40016U 14033G   15041.40514040  .00000867  00000-0  13528-3 0  9994
2 40016  97.9606 297.2172 0048840 166.6140 193.6340 14.74620077 34728
TABLETSAT-AURORA        
1 40017U 14033H   15041.39707830  .00004176  00000-0  43023-3 0  9994
2 40017  97.9736 303.2195 0023851 281.6456  78.2071 14.90612667 35071
APRIZESAT 9             
1 40018U 14033J   15041.29225632  .00000819  00000-0  14150-3 0  9998
2 40018  97.9547 295.0678 0072031 168.2749 192.0153 14.69353877 34486
APRIZESAT 10            
1 40019U 14033K   15041.27456923  .00000693  00000-0  12732-3 0  9990
2 40019  97.9517 293.9471 0084824 170.0423 190.2482 14.66467967 34461
AISAT                   
1 40054U 14034B   15041.44444948  .00004810  00000-0  72891-3 0  9990
2 40054  98.2292 117.1859 0012754 270.4203  89.5539 14.74575759 33173
CANX-4                  
1 40055U 14034C   15041.46052013  .00001482  00000-0  23416-3 0  9992
2 40055  98.2297 117.2552 0013392 280.0379  79.9318 14.73836694 33175
CANX-5                  
1 40056U 14034D   15041.46061258  .00001507  00000-0  23801-3 0  9990
2 40056  98.2296 117.2543 0013379 280.2871  79.6827 14.73835726 33176
TDS 1                   
1 40076U 14037H   15041.47328098  .00001020  00000-0  13992-3 0  9994
2 40076  98.3659 107.7095 0005295 317.6039  42.4767 14.80739258 32066
TIANTUO 2               
1 40144U 14053B   15041.48184178  .00007001  00000-0  25187-3 0  9992
2 40144  97.3955 119.0327 0014661  85.2059 331.4783 15.28819856 23718
